STARLINK-2096           
1 47376U 21005AD  26185.66670139  .00054245  00000+0  17467-2 0  9991
2 47376  53.1558 238.2866 0000947  78.0404  57.4382 15.31707456  5771
STARLINK-2097           
1 47377U 21005AE  26184.56671842  .00017483  00000+0  57434-3 0  9994
2 47377  53.1596 247.1577 0001850 103.0198 257.1010 15.31671037300720
STARLINK-2098           
1 47378U 21005AF  26185.30904594  .00000907  00000+0  41003-4 0  9990
2 47378  53.1601 191.5886 0001271  91.2365 268.8782 15.31701454301581
STARLINK-2099           
1 47379U 21005AG  26185.70977970  .00003016  00000+0  10889-3 0  9994
2 47379  53.1584 189.0927 0001338  99.2716 260.8436 15.31710218301656
STARLINK-2100           
1 47380U 21005AH  26186.00003472  .00386841  00000+0  13642-2 0  9996
2 47380  53.0497 180.2227 0009170  37.4336  39.9738 15.87536728  5890
STARLINK-2101           
1 47381U 21005AJ  26185.51992328  .00001846  00000+0  71227-4 0  9993
2 47381  53.1579 213.8527 0001230  97.3251 262.7891 15.31700197301289
STARLINK-2102           
1 47382U 21005AK  26185.76879098  .00004656  00000+0  16161-3 0  9996
2 47382  53.1579 201.8171 0001379  89.2000 270.9159 15.31717890301475
STARLINK-2103           
1 47383U 21005AL  26185.27474783  .00078688  00000+0  21569-2 0  9998
2 47383  53.1586 190.8624 0005482  29.0016 331.1291 15.36614361301596
STARLINK-2104           
1 47384U 21005AM  26185.50593627  .00000885  00000+0  40260-4 0  9999
2 47384  53.1577 213.9251 0001336  95.5561 264.5592 15.31709952301271
STARLINK-2105           
1 47385U 21005AN  26185.49591836  .00014448  00000+0  47602-3 0  9994
2 47385  53.1570 213.6384 0001248  96.6530 263.4613 15.31728431301274
STARLINK-2106           
1 47386U 21005AP  26185.36145760 -.00000185  00000+0  57856-5 0  9990
2 47386  53.1577 214.6206 0001031  93.2979 266.8140 15.31712410301256
STARLINK-2109           
1 47388U 21005AR  26185.57774177  .00003124  00000+0  11236-3 0  9990
2 47388  53.1600 242.4482 0000978  69.6397 290.4710 15.31710691300872
STARLINK-2110           
1 47389U 21005AS  26185.77532622  .00053455  00000+0  16654-2 0  9990
2 47389  53.1546 211.9263 0001899  52.4972 307.6202 15.32768997301334
STARLINK-2111           
1 47390U 21005AT  26185.55444725  .00000711  00000+0  34657-4 0  9996
2 47390  53.1580 242.6107 0001037  90.6390 269.4731 15.31702936300874
STARLINK-2112           
1 47391U 21005AU  26185.81136981  .00040504  00000+0  22833-2 0  9993
2 47391  53.0635 223.0282 0002050 356.1231   3.9745 15.12820473301156
STARLINK-2113           
1 47392U 21005AV  26186.00003472  .00507008  11586-3  12557-2 0  9998
2 47392  53.0381 153.3927 0002799 100.4375 192.8841 15.95382285  6023
STARLINK-2119           
1 47397U 21005BA  26185.54500759  .00085002  00000+0  23681-2 0  9991
2 47397  53.1570 238.2722 0005037  12.1931 347.9193 15.36073772300944
STARLINK-2121           
1 47399U 21005BC  26185.78480661  .00003607  00000+0  12787-3 0  9995
2 47399  53.1579 211.8976 0001242  85.3186 274.7957 15.31714921301333
STARLINK-2122           
1 47400U 21005BD  26185.71443982  .00002417  00000+0  89591-4 0  9992
2 47400  53.1581 189.0567 0001167  94.3193 265.7941 15.31709769301657
STARLINK-2123           
1 47401U 21005BE  26185.76620565  .00004570  00000+0  15887-3 0  9990
2 47401  53.1592 212.2489 0001565 105.0377 255.0798 15.31713446301321
STARLINK-2128           
1 47404U 21005BH  26186.00003472  .00700953  23289-3  13684-2 0  9991
2 47404  53.0330 151.2066 0002740  71.1701  46.5472 15.99664352  6033
STARLINK-2130           
1 47405U 21005BJ  26185.84255991  .00003880  00000+0  13670-3 0  9991
2 47405  53.1587 237.3617 0001650  84.4702 275.6487 15.31710500300978
STARLINK-2134           
1 47407U 21005BL  26185.86000544  .00010438  00000+0  34734-3 0  9998
2 47407  53.1580 213.6491 0001328  86.4489 273.6665 15.31729518301309
STARLINK-2135           
1 47408U 21005BM  26185.79886256  .00008151  00000+0  27396-3 0  9998
2 47408  53.1595 212.3234 0001514  89.2819 270.8356 15.31722647301326
STARLINK-1954           
1 47555U 21009H   26185.68699197  .00086747  00000+0  19146-2 0  9999
2 47555  53.0508 179.6816 0004385  46.0576 314.0790 15.43159279298958
STARLINK-1962           
1 47563U 21009R   26186.07696444  .01706181  26018-2  12305-2 0  9996
2 47563  53.0275 128.8619 0004806 221.4911 138.5761 16.15850915299688
STARLINK-1967           
1 47568U 21009W   26186.00003472  .00522417  12424-3  12239-2 0  9997
2 47568  53.0339 139.8887 0002232 138.0857  33.6181 15.96405240  6037
STARLINK-1994           
1 47589U 21009AT  26186.00003472  .00392030  00000+0  13366-2 0  9991
2 47589  53.0362 142.0293 0002803 114.3801  67.5595 15.88251267  6015
STARLINK-1995           
1 47590U 21009AU  26186.00003472  .00334659  00000+0  12398-2 0  9990
2 47590  53.0342 159.6817 0003767  79.8269 261.1527 15.86700783  5919
STARLINK-2001           
1 47596U 21009BA  26186.00003472  .00192602  00000+0  11435-2 0  9997
2 47596  53.0385 168.0345 0001892 117.2274 269.6060 15.76938411  5872
