OBJECT_NAME,OBJECT_ID,EPOCH,MEAN_MOTION,ECCENTRICITY,INCLINATION,RA_OF_ASC_NODE,ARG_OF_PERICENTER,MEAN_ANOMALY,EPHEMERIS_TYPE,CLASSIFICATION_TYPE,NORAD_CAT_ID,ELEMENT_SET_NO,REV_AT_EPOCH,BSTAR,MEAN_MOTION_DOT,MEAN_MOTION_DDOT
STARLINK-2096,2021-005AD,2026-07-04T16:00:03.000096,15.31707456,.00009479,53.1558,238.2866,78.0404,57.4382,0,U,47376,999,577,.17467018E-2,.54245E-3,0
STARLINK-2097,2021-005AE,2026-07-03T13:36:04.471488,15.31671037,.00018508,53.1596,247.1577,103.0198,257.1010,0,U,47377,999,30072,.57434488E-3,.17483E-3,0
STARLINK-2098,2021-005AF,2026-07-04T07:25:01.569216,15.31701454,.00012713,53.1601,191.5886,91.2365,268.8782,0,U,47378,999,30158,.41003039E-4,.907E-5,0
STARLINK-2099,2021-005AG,2026-07-04T17:02:04.966080,15.31710218,.00013388,53.1584,189.0927,99.2716,260.8436,0,U,47379,999,30165,.10888532E-3,.3016E-4,0
STARLINK-2100,2021-005AH,2026-07-05T00:00:02.999808,15.87536728,.00091707,53.0497,180.2227,37.4336,39.9738,0,U,47380,999,589,.13641715E-2,.386841E-2,0
STARLINK-2101,2021-005AJ,2026-07-04T12:28:41.371392,15.31700197,.00012306,53.1579,213.8527,97.3251,262.7891,0,U,47381,999,30128,.71226764E-4,.1846E-4,0
STARLINK-2102,2021-005AK,2026-07-04T18:27:03.540672,15.31717890,.00013794,53.1579,201.8171,89.2000,270.9159,0,U,47382,999,30147,.16161269E-3,.4656E-4,0
STARLINK-2103,2021-005AL,2026-07-04T06:35:38.212512,15.36614361,.0005482,53.1586,190.8624,29.0016,331.1291,0,U,47383,999,30159,.21568792E-2,.78688E-3,0
STARLINK-2104,2021-005AM,2026-07-04T12:08:32.893728,15.31709952,.00013368,53.1577,213.9251,95.5561,264.5592,0,U,47384,999,30127,.4026011E-4,.885E-5,0
STARLINK-2105,2021-005AN,2026-07-04T11:54:07.346304,15.31728431,.00012489,53.1570,213.6384,96.6530,263.4613,0,U,47385,999,30127,.47602187E-3,.14448E-3,0
STARLINK-2106,2021-005AP,2026-07-04T08:40:29.936640,15.31712410,.0001031,53.1577,214.6206,93.2979,266.8140,0,U,47386,999,30125,.5785648E-5,-.185E-5,0
STARLINK-2109,2021-005AR,2026-07-04T13:51:56.888928,15.31710691,.00009788,53.1600,242.4482,69.6397,290.4710,0,U,47388,999,30087,.11235698E-3,.3124E-4,0
STARLINK-2110,2021-005AS,2026-07-04T18:36:28.185408,15.32768997,.00018991,53.1546,211.9263,52.4972,307.6202,0,U,47389,999,30133,.16654196E-2,.53455E-3,0
STARLINK-2111,2021-005AT,2026-07-04T13:18:24.242400,15.31702936,.00010376,53.1580,242.6107,90.6390,269.4731,0,U,47390,999,30087,.34657206E-4,.711E-5,0
STARLINK-2112,2021-005AU,2026-07-04T19:28:22.351584,15.12820473,.000205,53.0635,223.0282,356.1231,3.9745,0,U,47391,999,30115,.22832694E-2,.40504E-3,0
STARLINK-2113,2021-005AV,2026-07-05T00:00:02.999808,15.95382285,.00027994,53.0381,153.3927,100.4375,192.8841,0,U,47392,999,602,.12556852E-2,.507008E-2,.11585936E-3
STARLINK-2119,2021-005BA,2026-07-04T13:04:48.655776,15.36073772,.00050373,53.1570,238.2722,12.1931,347.9193,0,U,47397,999,30094,.23680674E-2,.85002E-3,0
STARLINK-2121,2021-005BC,2026-07-04T18:50:07.291104,15.31714921,.0001242,53.1579,211.8976,85.3186,274.7957,0,U,47399,999,30133,.12787402E-3,.3607E-4,0
STARLINK-2122,2021-005BD,2026-07-04T17:08:47.600448,15.31709769,.00011677,53.1581,189.0567,94.3193,265.7941,0,U,47400,999,30165,.89591125E-4,.2417E-4,0
STARLINK-2123,2021-005BE,2026-07-04T18:23:20.168160,15.31713446,.00015651,53.1592,212.2489,105.0377,255.0798,0,U,47401,999,30132,.15886791E-3,.457E-4,0
STARLINK-2128,2021-005BH,2026-07-05T00:00:02.999808,15.99664352,.00027409,53.0330,151.2066,71.1701,46.5472,0,U,47404,999,603,.13684205E-2,.700953E-2,.23288532E-3
STARLINK-2130,2021-005BJ,2026-07-04T20:13:17.176224,15.31710500,.00016507,53.1587,237.3617,84.4702,275.6487,0,U,47405,999,30097,.13670214E-3,.388E-4,0
STARLINK-2134,2021-005BL,2026-07-04T20:38:24.470016,15.31729518,.00013289,53.1580,213.6491,86.4489,273.6665,0,U,47407,999,30130,.34733654E-3,.10438E-3,0
STARLINK-2135,2021-005BM,2026-07-04T19:10:21.725184,15.31722647,.00015146,53.1595,212.3234,89.2819,270.8356,0,U,47408,999,30132,.27396299E-3,.8151E-4,0
STARLINK-1954,2021-009H,2026-07-04T16:29:16.106208,15.43159279,.00043857,53.0508,179.6816,46.0576,314.0790,0,U,47555,999,29895,.19145959E-2,.86747E-3,0
STARLINK-1962,2021-009R,2026-07-05T01:50:49.727616,16.15850915,.0004806,53.0275,128.8619,221.4911,138.5761,0,U,47563,999,29968,.12305E-2,.1706181E-1,.26018E-2
STARLINK-1967,2021-009W,2026-07-05T00:00:02.999808,15.96405240,.00022324,53.0339,139.8887,138.0857,33.6181,0,U,47568,999,603,.12238628E-2,.522417E-2,.12423906E-3
STARLINK-1994,2021-009AT,2026-07-05T00:00:02.999808,15.88251267,.00028032,53.0362,142.0293,114.3801,67.5595,0,U,47589,999,601,.1336643E-2,.39203E-2,0
STARLINK-1995,2021-009AU,2026-07-05T00:00:02.999808,15.86700783,.00037673,53.0342,159.6817,79.8269,261.1527,0,U,47590,999,591,.12398064E-2,.334659E-2,0
STARLINK-2001,2021-009BA,2026-07-05T00:00:02.999808,15.76938411,.0001892,53.0385,168.0345,117.2274,269.6060,0,U,47596,999,587,.11434899E-2,.192602E-2,0
